[{"OBJECT_NAME":"STARLINK-31768","OBJECT_ID":"2024-080R","EPOCH":"2026-01-15T22:28:53.117760","MEAN_MOTION":15.27579461,"ECCENTRICITY":5.701e-5,"INCLINATION":43.0025,"RA_OF_ASC_NODE":335.9304,"ARG_OF_PERICENTER":300.7533,"MEAN_ANOMALY":59.3262,"EPHEMERIS_TYPE":0,"CLASSIFICATION_TYPE":"U","NORAD_CAT_ID":59616,"ELEMENT_SET_NO":999,"REV_AT_EPOCH":9646,"BSTAR":7.36077e-6,"MEAN_MOTION_DOT":-5.9e-7,"MEAN_MOTION_DDOT":0},{"OBJECT_NAME":"STARLINK-31769","OBJECT_ID":"2024-080S","EPOCH":"2026-01-15T05:39:03.852864","MEAN_MOTION":15.27582016,"ECCENTRICITY":0.00012299,"INCLINATION":43.0026,"RA_OF_ASC_NODE":340.1223,"ARG_OF_PERICENTER":273.9522,"MEAN_ANOMALY":86.1189,"EPHEMERIS_TYPE":0,"CLASSIFICATION_TYPE":"U","NORAD_CAT_ID":59617,"ELEMENT_SET_NO":999,"REV_AT_EPOCH":9635,"BSTAR":1.2449143e-5,"MEAN_MOTION_DOT":8.1e-7,"MEAN_MOTION_DDOT":0},{"OBJECT_NAME":"STARLINK-31784","OBJECT_ID":"2024-080T","EPOCH":"2026-01-15T05:36:30.703680","MEAN_MOTION":15.27569615,"ECCENTRICITY":0.00015175,"INCLINATION":43.0039,"RA_OF_ASC_NODE":343.5692,"ARG_OF_PERICENTER":276.0005,"MEAN_ANOMALY":84.0673,"EPHEMERIS_TYPE":0,"CLASSIFICATION_TYPE":"U","NORAD_CAT_ID":59618,"ELEMENT_SET_NO":999,"REV_AT_EPOCH":9631,"BSTAR":0.00017884886,"MEAN_MOTION_DOT":4.661e-5,"MEAN_MOTION_DDOT":0},{"OBJECT_NAME":"STARLINK-31777","OBJECT_ID":"2024-080U","EPOCH":"2026-01-15T22:57:47.187360","MEAN_MOTION":15.27583479,"ECCENTRICITY":0.00013658,"INCLINATION":43.0037,"RA_OF_ASC_NODE":339.5343,"ARG_OF_PERICENTER":269.3048,"MEAN_ANOMALY":90.7648,"EPHEMERIS_TYPE":0,"CLASSIFICATION_TYPE":"U","NORAD_CAT_ID":59619,"ELEMENT_SET_NO":999,"REV_AT_EPOCH":9642,"BSTAR":3.843851e-6,"MEAN_MOTION_DOT":-1.56e-6,"MEAN_MOTION_DDOT":0},{"OBJECT_NAME":"STARLINK-31758","OBJECT_ID":"2024-080W","EPOCH":"2026-01-15T18:29:27.412224","MEAN_MOTION":15.27582501,"ECCENTRICITY":4.44e-5,"INCLINATION":43.0022,"RA_OF_ASC_NODE":332.935,"ARG_OF_PERICENTER":256.3399,"MEAN_ANOMALY":103.7403,"EPHEMERIS_TYPE":0,"CLASSIFICATION_TYPE":"U","NORAD_CAT_ID":59621,"ELEMENT_SET_NO":999,"REV_AT_EPOCH":9648,"BSTAR":2.9385178e-5,"MEAN_MOTION_DOT":5.47e-6,"MEAN_MOTION_DDOT":0},{"OBJECT_NAME":"STARLINK-31774","OBJECT_ID":"2024-080X","EPOCH":"2026-01-15T06:49:52.244544","MEAN_MOTION":15.27571322,"ECCENTRICITY":0.00010777,"INCLINATION":43.0039,"RA_OF_ASC_NODE":336.1708,"ARG_OF_PERICENTER":293.5042,"MEAN_ANOMALY":66.5696,"EPHEMERIS_TYPE":0,"CLASSIFICATION_TYPE":"U","NORAD_CAT_ID":59622,"ELEMENT_SET_NO":999,"REV_AT_EPOCH":9640,"BSTAR":7.7090242e-5,"MEAN_MOTION_DOT":1.859e-5,"MEAN_MOTION_DDOT":0},{"OBJECT_NAME":"STARLINK-31763","OBJECT_ID":"2024-080Y","EPOCH":"2026-01-15T07:18:46.424736","MEAN_MOTION":15.27573578,"ECCENTRICITY":0.00011249,"INCLINATION":43.0023,"RA_OF_ASC_NODE":339.7822,"ARG_OF_PERICENTER":272.7752,"MEAN_ANOMALY":87.2971,"EPHEMERIS_TYPE":0,"CLASSIFICATION_TYPE":"U","NORAD_CAT_ID":59623,"ELEMENT_SET_NO":999,"REV_AT_EPOCH":9636,"BSTAR":7.9577429e-5,"MEAN_MOTION_DOT":1.928e-5,"MEAN_MOTION_DDOT":0},{"OBJECT_NAME":"STARLINK-31749","OBJECT_ID":"2024-082A","EPOCH":"2026-01-15T04:32:38.967360","MEAN_MOTION":15.27573311,"ECCENTRICITY":0.00024264,"INCLINATION":43.0007,"RA_OF_ASC_NODE":81.6168,"ARG_OF_PERICENTER":276.0133,"MEAN_ANOMALY":84.0442,"EPHEMERIS_TYPE":0,"CLASSIFICATION_TYPE":"U","NORAD_CAT_ID":59631,"ELEMENT_SET_NO":999,"REV_AT_EPOCH":9683,"BSTAR":0.00011110752,"MEAN_MOTION_DOT":2.796e-5,"MEAN_MOTION_DDOT":0},{"OBJECT_NAME":"STARLINK-31781","OBJECT_ID":"2024-082B","EPOCH":"2026-01-15T05:14:11.652288","MEAN_MOTION":15.27674527,"ECCENTRICITY":0.0002349,"INCLINATION":42.9994,"RA_OF_ASC_NODE":67.6735,"ARG_OF_PERICENTER":278.3264,"MEAN_ANOMALY":81.7321,"EPHEMERIS_TYPE":0,"CLASSIFICATION_TYPE":"U","NORAD_CAT_ID":59632,"ELEMENT_SET_NO":999,"REV_AT_EPOCH":9683,"BSTAR":-0.00062970841,"MEAN_MOTION_DOT":-0.00017601,"MEAN_MOTION_DDOT":0},{"OBJECT_NAME":"STARLINK-31541","OBJECT_ID":"2024-082C","EPOCH":"2026-01-15T04:48:50.744448","MEAN_MOTION":15.27584798,"ECCENTRICITY":0.00014079,"INCLINATION":43.0011,"RA_OF_ASC_NODE":74.7704,"ARG_OF_PERICENTER":266.546,"MEAN_ANOMALY":93.523,"EPHEMERIS_TYPE":0,"CLASSIFICATION_TYPE":"U","NORAD_CAT_ID":59633,"ELEMENT_SET_NO":999,"REV_AT_EPOCH":9690,"BSTAR":3.4817707e-5,"MEAN_MOTION_DOT":6.96e-6,"MEAN_MOTION_DDOT":0},{"OBJECT_NAME":"STARLINK-31797","OBJECT_ID":"2024-082D","EPOCH":"2026-01-15T05:00:24.239232","MEAN_MOTION":15.27583442,"ECCENTRICITY":8.621e-5,"INCLINATION":43.0026,"RA_OF_ASC_NODE":81.7669,"ARG_OF_PERICENTER":291.3574,"MEAN_ANOMALY":68.7186,"EPHEMERIS_TYPE":0,"CLASSIFICATION_TYPE":"U","NORAD_CAT_ID":59634,"ELEMENT_SET_NO":999,"REV_AT_EPOCH":9667,"BSTAR":4.1773183e-5,"MEAN_MOTION_DOT":8.88e-6,"MEAN_MOTION_DDOT":0},{"OBJECT_NAME":"STARLINK-31798","OBJECT_ID":"2024-082E","EPOCH":"2026-01-15T10:29:07.834272","MEAN_MOTION":15.27582715,"ECCENTRICITY":0.00010962,"INCLINATION":43.0041,"RA_OF_ASC_NODE":80.8946,"ARG_OF_PERICENTER":282.3542,"MEAN_ANOMALY":77.7187,"EPHEMERIS_TYPE":0,"CLASSIFICATION_TYPE":"U","NORAD_CAT_ID":59635,"ELEMENT_SET_NO":999,"REV_AT_EPOCH":9666,"BSTAR":6.7631143e-5,"MEAN_MOTION_DOT":1.6e-5,"MEAN_MOTION_DDOT":0},{"OBJECT_NAME":"STARLINK-31802","OBJECT_ID":"2024-082F","EPOCH":"2026-01-15T04:01:24.233376","MEAN_MOTION":15.27567017,"ECCENTRICITY":0.00018483,"INCLINATION":43.0099,"RA_OF_ASC_NODE":82.3132,"ARG_OF_PERICENTER":234.4185,"MEAN_ANOMALY":125.6495,"EPHEMERIS_TYPE":0,"CLASSIFICATION_TYPE":"U","NORAD_CAT_ID":59636,"ELEMENT_SET_NO":999,"REV_AT_EPOCH":9662,"BSTAR":8.9117228e-5,"MEAN_MOTION_DOT":2.19e-5,"MEAN_MOTION_DDOT":0},{"OBJECT_NAME":"STARLINK-31791","OBJECT_ID":"2024-082G","EPOCH":"2026-01-15T12:34:31.788192","MEAN_MOTION":15.27587598,"ECCENTRICITY":0.0001276,"INCLINATION":42.9989,"RA_OF_ASC_NODE":79.8244,"ARG_OF_PERICENTER":247.9145,"MEAN_ANOMALY":112.1571,"EPHEMERIS_TYPE":0,"CLASSIFICATION_TYPE":"U","NORAD_CAT_ID":59637,"ELEMENT_SET_NO":999,"REV_AT_EPOCH":9668,"BSTAR":6.2384e-5,"MEAN_MOTION_DOT":1.455e-5,"MEAN_MOTION_DDOT":0},{"OBJECT_NAME":"STARLINK-31727","OBJECT_ID":"2024-082H","EPOCH":"2026-01-15T05:52:12.710784","MEAN_MOTION":15.27585124,"ECCENTRICITY":0.00015802,"INCLINATION":43.006,"RA_OF_ASC_NODE":82.0314,"ARG_OF_PERICENTER":266.536,"MEAN_ANOMALY":93.5311,"EPHEMERIS_TYPE":0,"CLASSIFICATION_TYPE":"U","NORAD_CAT_ID":59638,"ELEMENT_SET_NO":999,"REV_AT_EPOCH":9668,"BSTAR":5.2071265e-5,"MEAN_MOTION_DOT":1.171e-5,"MEAN_MOTION_DDOT":0},{"OBJECT_NAME":"STARLINK-31807","OBJECT_ID":"2024-082J","EPOCH":"2026-01-15T13:31:53.637600","MEAN_MOTION":15.27580595,"ECCENTRICITY":0.0001034,"INCLINATION":43.0024,"RA_OF_ASC_NODE":80.1239,"ARG_OF_PERICENTER":233.9079,"MEAN_ANOMALY":126.1677,"EPHEMERIS_TYPE":0,"CLASSIFICATION_TYPE":"U","NORAD_CAT_ID":59639,"ELEMENT_SET_NO":999,"REV_AT_EPOCH":9668,"BSTAR":5.0524e-5,"MEAN_MOTION_DOT":1.129e-5,"MEAN_MOTION_DDOT":0}]
