STARLINK-31768          
1 59616U 24080R   26015.93672590 -.00000059  00000+0  73608-5 0  9999
2 59616  43.0025 335.9304 0000570 300.7533  59.3262 15.27579461 96462
STARLINK-31769          
1 59617U 24080S   26015.23546126  .00000081  00000+0  12449-4 0  9997
2 59617  43.0026 340.1223 0001229 273.9522  86.1189 15.27582016 96357
STARLINK-31784          
1 59618U 24080T   26015.23368870  .00004661  00000+0  17885-3 0  9992
2 59618  43.0039 343.5692 0001517 276.0005  84.0673 15.27569615 96310
STARLINK-31777          
1 59619U 24080U   26015.95679615 -.00000156  00000+0  38439-5 0  9990
2 59619  43.0037 339.5343 0001365 269.3048  90.7648 15.27583479 96422
STARLINK-31758          
1 59621U 24080W   26015.77045616  .00000547  00000+0  29385-4 0  9993
2 59621  43.0022 332.9350 0000444 256.3399 103.7403 15.27582501 96481
STARLINK-31774          
1 59622U 24080X   26015.28463246  .00001859  00000+0  77090-4 0  9996
2 59622  43.0039 336.1708 0001077 293.5042  66.5696 15.27571322 96405
STARLINK-31763          
1 59623U 24080Y   26015.30470399  .00001928  00000+0  79577-4 0  9996
2 59623  43.0023 339.7822 0001124 272.7752  87.2971 15.27573578 96361
STARLINK-31749          
1 59631U 24082A   26015.18933990  .00002796  00000+0  11111-3 0  9997
2 59631  43.0007  81.6168 0002426 276.0133  84.0442 15.27573311 96839
STARLINK-31781          
1 59632U 24082B   26015.21819042 -.00017601  00000+0 -62971-3 0  9996
2 59632  42.9994  67.6735 0002349 278.3264  81.7321 15.27674527 96832
STARLINK-31541          
1 59633U 24082C   26015.20058732  .00000696  00000+0  34818-4 0  9991
2 59633  43.0011  74.7704 0001407 266.5460  93.5230 15.27584798 96909
STARLINK-31797          
1 59634U 24082D   26015.20861388  .00000888  00000+0  41773-4 0  9992
2 59634  43.0026  81.7669 0000862 291.3574  68.7186 15.27583442 96673
STARLINK-31798          
1 59635U 24082E   26015.43689623  .00001600  00000+0  67631-4 0  9992
2 59635  43.0041  80.8946 0001096 282.3542  77.7187 15.27582715 96666
STARLINK-31802          
1 59636U 24082F   26015.16764159  .00002190  00000+0  89117-4 0  9999
2 59636  43.0099  82.3132 0001848 234.4185 125.6495 15.27567017 96629
STARLINK-31791          
1 59637U 24082G   26015.52397903  .00001455  00000+0  62384-4 0  9999
2 59637  42.9989  79.8244 0001276 247.9145 112.1571 15.27587598 96689
STARLINK-31727          
1 59638U 24082H   26015.24459156  .00001171  00000+0  52071-4 0  9995
2 59638  43.0060  82.0314 0001580 266.5360  93.5311 15.27585124 96687
STARLINK-31807          
1 59639U 24082J   26015.56381525  .00001129  00000+0  50524-4 0  9999
2 59639  43.0024  80.1239 0001034 233.9079 126.1677 15.27580595 96687
